
# Worst residual: 4.70 km
# MJD 59213.000000 (2020 Dec 30  0:00)
1967-040F = NORAD 02770 = Transtage 10
1 02770U 67040F   20365.49919926  .00000000  00000-0  00000-0 0  7222
2 02770 036.6340 332.9712 8399707 182.3495 150.2639 00.50945667    00

# Worst residual: 10.11 km
# MJD 59214.000000 (2020 Dec 31  0:00)
1967-040F = NORAD 02770 = Transtage 10
1 02770U 67040F   20366.49919926  .00000000  00000-0  00000-0 0  7223
2 02770 036.6251 332.9472 8399325 182.3906 333.6311 00.50940537    02
